{
"type": "FeatureCollection",
"name": "isochrones_5min_car_sample",
"crs": { "type": "name", "properties": { "name": "urn:ogc:def:crs:EPSG::2056" } },
"features": [
{ "type": "Feature", "properties": { "group_index": 0, "value": 300.0, "center": [ 7.358936401237049, 46.231695391190414 ], "pharmacy_id": "2415163591", "name": "Droguerie de Valère" }, "geometry": { "type": "Polygon", "coordinates": [ [ [ 2591887.566717070527375, 1119350.377351395785809 ], [ 2591953.968737563118339, 1119214.332329317461699 ], [ 2591954.892824317328632, 1119212.997101876186207 ], [ 2592113.32881182897836, 1119179.881556691136211 ], [ 2592651.755412860773504, 1119137.621198809472844 ], [ 2593116.857473695650697, 1118463.627318728715181 ], [ 2593122.253600818105042, 1118458.840995846083388 ], [ 2593362.569581634365022, 1118338.288509582867846 ], [ 2593459.1600431939587, 1118387.428533728700131 ], [ 2593777.567248882260174, 1118551.169326173141599 ], [ 2593823.907264582812786, 1118590.918576799100265 ], [ 2593873.262388512957841, 1118712.14947445737198 ], [ 2594056.387067418079823, 1119039.791922565782443 ], [ 2594550.255171305499971, 1119266.321058155503124 ], [ 2594676.32109921425581, 1119258.870372435310856 ], [ 2594885.57261975761503, 1119354.40088870213367 ], [ 2594914.284371823072433, 1119366.382219371851534 ], [ 2594985.244505201932043, 1119615.444111572578549 ], [ 2594909.205857564695179, 1120376.658852552995086 ], [ 2594698.995640669483691, 1120637.969708379590884 ], [ 2594260.589632339309901, 1120848.589043543674052 ], [ 2593842.447693313937634, 1121083.231013519689441 ], [ 2593748.378171604592353, 1121114.121490570250899 ], [ 2593155.67017729440704, 1120756.150378966704011 ], [ 2592922.92387167410925, 1120213.377387034939602 ], [ 2592391.830808654427528, 1119760.250611061928794 ], [ 2591987.367762068286538, 1119668.84375342912972 ], [ 2591949.402501361444592, 1119663.55866811494343 ], [ 2591929.566848595626652, 1119657.69356075162068 ], [ 2591896.816621078643948, 1119629.39050878630951 ], [ 2591887.566717070527375, 1119350.377351395785809 ] ] ] } },
{ "type": "Feature", "properties": { "group_index": 0, "value": 300.0, "center": [ 7.572121805538321, 47.560596802275626 ], "pharmacy_id": "7836942794", "name": "Sonnen-Apotheke" }, "geometry": { "type": "Polygon", "coordinates": [ [ [ 2608662.631542914081365, 1269802.504198841284961 ], [ 2608740.798255302943289, 1269087.89175485773012 ], [ 2608620.517295720987022, 1268491.963629916775972 ], [ 2608362.213135615456849, 1268197.277250644052401 ], [ 2608320.254252693150192, 1268172.868028823519126 ], [ 2608032.659120221622288, 1268090.749034096486866 ], [ 2607917.342768255155534, 1268107.050578826107085 ], [ 2607860.362451151944697, 1267715.8120968490839 ], [ 2608012.963670473080128, 1267067.562125050928444 ], [ 2607958.314049655105919, 1266675.54883100814186 ], [ 2608207.418280312791467, 1266171.647061567055061 ], [ 2608482.288435321766883, 1265949.65553306392394 ], [ 2608540.440520414616913, 1265927.278626978397369 ], [ 2608948.307163561694324, 1265946.446297540329397 ], [ 2609325.218282824382186, 1265780.464968792162836 ], [ 2609405.307208869606256, 1265743.342972068348899 ], [ 2609420.741484199650586, 1265743.145018436713144 ], [ 2609431.653402008116245, 1265746.164393630810082 ], [ 2609530.985647846013308, 1265822.709095890633762 ], [ 2610186.184192473068833, 1265571.286711352644488 ], [ 2610199.824204552453011, 1265563.971671931445599 ], [ 2610715.116271331906319, 1265726.768382718786597 ], [ 2611170.973057419527322, 1266053.167532864958048 ], [ 2611414.696228155866265, 1266272.783393245190382 ], [ 2611449.599722763989121, 1266325.776323856320232 ], [ 2611472.409146415069699, 1266403.985909481765702 ], [ 2611506.562717566732317, 1266649.111742489039898 ], [ 2611264.48420897545293, 1267358.477033338276669 ], [ 2611518.126533401198685, 1268216.120264462428167 ], [ 2611606.987008720170707, 1268417.32354259188287 ], [ 2611588.899183733388782, 1268508.241089398274198 ], [ 2611282.868141891434789, 1269091.396291941404343 ], [ 2611209.122643408831209, 1269094.258735426003113 ], [ 2611042.223510929383337, 1269097.39290739200078 ], [ 2610877.205679946579039, 1269100.535246322862804 ], [ 2610346.16407271521166, 1269468.402439037337899 ], [ 2610227.767894986085594, 1269668.450072570238262 ], [ 2610187.567309397272766, 1269682.279718185309321 ], [ 2610119.063214608002454, 1269704.622975166887045 ], [ 2609829.254732862114906, 1269792.643547734711319 ], [ 2609502.555673728231341, 1269760.867902072379366 ], [ 2609214.221650975756347, 1269779.093881908804178 ], [ 2608844.562580595724285, 1270098.759175115264952 ], [ 2608662.631542914081365, 1269802.504198841284961 ] ] ] } },
{ "type": "Feature", "properties": { "group_index": 0, "value": 300.0, "center": [ 8.72109530367815, 47.51839746662361 ], "pharmacy_id": "4486137538", "name": "Dropa Rosenberg" }, "geometry": { "type": "Polygon", "coordinates": [ [ [ 2694609.659688114654273, 1264853.728920670459047 ], [ 2694562.075135323219001, 1263958.460055274190381 ], [ 2694332.997264667414129, 1263769.759258478181437 ], [ 2694279.985328799579293, 1263754.234639304922894 ], [ 2694239.002935160882771, 1263726.002965013496578 ], [ 2694191.30128759983927, 1263689.213171486044303 ], [ 2693971.720722631551325, 1263091.3466500074137 ], [ 2694198.882013507187366, 1262868.557464280398563 ], [ 2694263.486082969233394, 1263003.362510222243145 ], [ 2694310.208653622306883, 1263082.949572924291715 ], [ 2694380.368999980390072, 1263185.596362193347886 ], [ 2694569.25970264011994, 1263443.600770344259217 ], [ 2694744.57849091803655, 1263659.026276876684278 ], [ 2694819.876583558972925, 1263769.211588284466416 ], [ 2695262.196023873984814, 1263915.995104239787906 ], [ 2695501.424001899082214, 1263357.954037036979571 ], [ 2695566.866752901580185, 1263215.117008517263457 ], [ 2695776.808102671522647, 1262733.454200213775039 ], [ 2695813.081092194188386, 1262643.190466342726722 ], [ 2695976.85065451823175, 1262445.796063234098256 ], [ 2696280.068072731606662, 1261802.089333822252229 ], [ 2696442.850362808443606, 1261561.323137940606102 ], [ 2696487.068906325381249, 1261539.3596450262703 ], [ 2696570.569597956724465, 1261534.718278215499595 ], [ 2696592.787889417726547, 1261544.75580543698743 ], [ 2697061.837433204520494, 1261774.174680140335113 ], [ 2697508.067786629777402, 1262041.73090007295832 ], [ 2697649.666627266909927, 1262159.940854809246957 ], [ 2697766.369179376866668, 1262270.514351542340592 ], [ 2697836.079209483694285, 1262392.878043290227652 ], [ 2697831.240154824219644, 1262657.90375216701068 ], [ 2697736.759633595123887, 1262694.038099344586954 ], [ 2697680.215175347402692, 1262723.461471073329449 ], [ 2697473.019477250985801, 1262960.570815998129547 ], [ 2697702.504583089146763, 1263790.593743602046743 ], [ 2697827.657274925149977, 1264121.268081819172949 ], [ 2697847.271282417234033, 1264196.877068788744509 ], [ 2698274.89077697461471, 1264877.196593106491491 ], [ 2698365.003601158037782, 1264916.060491978889331 ], [ 2698432.132906731683761, 1264941.976857295027003 ], [ 2698517.53665487607941, 1264969.533146508503705 ], [ 2698574.00000336393714, 1264984.59778890106827 ], [ 2698639.076628398150206, 1264998.027529204264283 ], [ 2698701.213531011715531, 1265007.071950859157369 ], [ 2698755.220954826101661, 1265011.310593711212277 ], [ 2698822.389460159, 1265012.211363465059549 ], [ 2698872.745424305088818, 1265009.606603206833825 ], [ 2698938.630396468564868, 1265001.702151446836069 ], [ 2699006.639869416598231, 1264988.385071706026793 ], [ 2699049.001976012717932, 1264977.418801633408293 ], [ 2699128.537921122275293, 1264950.507161420304328 ], [ 2699354.628500647377223, 1264857.446920175105333 ], [ 2699409.171002118848264, 1264838.903824989916757 ], [ 2699489.906357353553176, 1264817.02134117600508 ], [ 2699545.6080098063685, 1264805.727238894440234 ], [ 2699604.884905114304274, 1264796.829206682508811 ], [ 2699665.83949422230944, 1264791.184969352791086 ], [ 2699744.211194660048932, 1264788.949083650950342 ], [ 2699804.13096263539046, 1264791.073045606492087 ], [ 2699863.619704064447433, 1264796.415233094245195 ], [ 2699921.700309318955988, 1264804.847905298927799 ], [ 2699981.828936229459941, 1264816.874325208598748 ], [ 2700037.776341514196247, 1264831.165836344705895 ], [ 2700077.79023320460692, 1264843.408695627469569 ], [ 2700647.049597626551986, 1264968.063935496611521 ], [ 2700687.261217397637665, 1264977.423034564824775 ], [ 2700727.194600288756192, 1264998.676481257425621 ], [ 2700898.721076988149434, 1265155.954615765251219 ], [ 2700867.593462393153459, 1265554.200797298690304 ], [ 2700799.91088599152863, 1265544.037942148512229 ], [ 2700701.512618417385966, 1265524.344639340881258 ], [ 2700648.340140640269965, 1265511.205990202259272 ], [ 2700572.582968425005674, 1265488.675744606880471 ], [ 2700313.565305531956255, 1265378.850272611249238 ], [ 2700163.865631639026105, 1265297.466593405930325 ], [ 2699734.593123477883637, 1265189.119549465598539 ], [ 2699412.391461731866002, 1265247.297210128977895 ], [ 2699198.213998787570745, 1265335.884609347907826 ], [ 2699106.783612916246057, 1265367.266250114422292 ], [ 2699051.101906282361597, 1265382.234459480969235 ], [ 2698971.225702882278711, 1265398.354639910161495 ], [ 2698891.902200012467802, 1265408.480160277802497 ], [ 2698828.880145288072526, 1265412.09602862666361 ], [ 2698749.810799626633525, 1265411.55217553768307 ], [ 2698683.615341061260551, 1265406.776291347108781 ], [ 2698609.678509231191128, 1265396.534161410294473 ], [ 2698533.193365791812539, 1265381.023899968713522 ], [ 2698466.455754777882248, 1265363.564239363651723 ], [ 2698371.163331307470798, 1265333.175011469982564 ], [ 2698293.631728046108037, 1265303.527644076151773 ], [ 2697819.49050939688459, 1265997.238605536520481 ], [ 2697774.019508727826178, 1266078.331416165223345 ], [ 2697380.826424715109169, 1266468.498181123519316 ], [ 2697290.097001650370657, 1266449.877673560986295 ], [ 2697087.950264209415764, 1266351.80621131323278 ], [ 2696895.767993945628405, 1266196.74685673834756 ], [ 2696886.298666727729142, 1266177.242183544673026 ], [ 2696802.582972173113376, 1266001.392017536098137 ], [ 2696256.45710065914318, 1265632.837502645561472 ], [ 2695997.743977183941752, 1265704.022954263957217 ], [ 2695788.919454715680331, 1265824.512779552023858 ], [ 2695686.780607838183641, 1265849.212411381769925 ], [ 2695680.937099298927933, 1265847.338515227893367 ], [ 2695643.357412445824593, 1265810.255476527614519 ], [ 2695546.279162736609578, 1265624.533060190267861 ], [ 2695416.711310038343072, 1265389.024936251342297 ], [ 2694765.559445939492434, 1265178.268618383677676 ], [ 2694609.659688114654273, 1264853.728920670459047 ] ] ] } },
{ "type": "Feature", "properties": { "group_index": 0, "value": 300.0, "center": [ 6.1609613439002295, 46.20091339929274 ], "pharmacy_id": "2164614799", "name": "Floréal" }, "geometry": { "type": "Polygon", "coordinates": [ [ [ 2500187.16366263711825, 1118013.141472080023959 ], [ 2500188.569210769608617, 1117466.99914248008281 ], [ 2500157.10791047802195, 1116945.525480852695182 ], [ 2500157.255045312922448, 1116940.408741588704288 ], [ 2500210.35518400138244, 1116813.008658546488732 ], [ 2500387.246336331125349, 1116560.38054583221674 ], [ 2500422.263613272458315, 1116525.337850902229548 ], [ 2500436.766955889295787, 1116515.203978605102748 ], [ 2500770.585014242213219, 1116427.777201089309528 ], [ 2501273.416912312153727, 1116060.32363508711569 ], [ 2501380.759517442900687, 1115918.929777985438704 ], [ 2501790.547342930454761, 1116170.199569412274286 ], [ 2502060.621156178414822, 1116173.380019602365792 ], [ 2502573.536846262402833, 1116234.137980458093807 ], [ 2502594.294316111132503, 1116247.701104870066047 ], [ 2502724.939858618192375, 1116343.658926509320736 ], [ 2502926.78545060288161, 1116647.383085603127256 ], [ 2503481.838465803302824, 1116777.917663765139878 ], [ 2503629.898269649129361, 1116800.682815064443275 ], [ 2503633.365355743095279, 1116805.074745957739651 ], [ 2503642.783384381327778, 1116824.381097128381953 ], [ 2503681.488905735313892, 1116966.519068081164733 ], [ 2503638.812325440812856, 1117112.955491556786001 ], [ 2503632.838863939512521, 1117120.833263243315741 ], [ 2503621.062527832575142, 1117127.914095715386793 ], [ 2503494.586160914972425, 1117218.652738789562136 ], [ 2503235.84455548459664, 1117973.473319307668135 ], [ 2503234.696974007412791, 1117978.939491666853428 ], [ 2503195.886317716445774, 1118061.944957797415555 ], [ 2502945.837708367500454, 1118401.605641578324139 ], [ 2502605.596110223792493, 1118933.180590803502128 ], [ 2502318.02910021552816, 1118857.104073619935662 ], [ 2501832.974223369266838, 1118535.646295618731529 ], [ 2501658.012916709762067, 1118408.631560418289155 ], [ 2501396.661516070365906, 1118101.25050522829406 ], [ 2501366.145130645018071, 1118080.735226897988468 ], [ 2501251.268096306361258, 1118004.117214301601052 ], [ 2501167.284682999830693, 1117947.5645910827443 ], [ 2501134.668540153186768, 1117926.195336170960218 ], [ 2500528.94230249337852, 1118386.634064547484741 ], [ 2500514.465343149378896, 1118398.101510442560539 ], [ 2500180.43769940873608, 1118344.459484525956213 ], [ 2500172.638451902195811, 1118334.915554173756391 ], [ 2500187.16366263711825, 1118013.141472080023959 ] ] ] } },
{ "type": "Feature", "properties": { "group_index": 0, "value": 300.0, "center": [ 6.810143216762913, 47.09397216342555 ], "pharmacy_id": "8988143345", "name": "Pharmacieplus des Forges" }, "geometry": { "type": "Polygon", "coordinates": [ [ [ 2551090.4581981562078, 1215279.034649082459509 ], [ 2551179.651641591917723, 1214951.550973705481738 ], [ 2551191.73610587278381, 1214915.763801007531583 ], [ 2551683.608378251548856, 1214878.837235614657402 ], [ 2552295.536393300164491, 1214972.731733073247597 ], [ 2552771.315932831261307, 1215433.542222210671753 ], [ 2553287.026760104112327, 1215902.859596801456064 ], [ 2553314.858128073625267, 1216198.150237439665943 ], [ 2553149.075602824334055, 1216809.374294604873285 ], [ 2553147.192713658325374, 1216811.279157378245145 ], [ 2553139.403628484345973, 1216815.120609801262617 ], [ 2552762.438561373855919, 1216714.487678217701614 ], [ 2552353.839284535497427, 1216343.859437462408096 ], [ 2551852.512653779238462, 1215911.416607898660004 ], [ 2551722.166324691381305, 1215801.963474002899602 ], [ 2551394.640096245799214, 1215434.634019234217703 ], [ 2551095.262816027272493, 1215318.463127673836425 ], [ 2551090.4581981562078, 1215279.034649082459509 ] ] ] } },
{ "type": "Feature", "properties": { "group_index": 0, "value": 300.0, "center": [ 8.5947681, 47.4087141 ], "pharmacy_id": "4833061652", "name": "Amavita Glattzentrum" }, "geometry": { "type": "Polygon", "coordinates": [ [ [ 2685551.26287248544395, 1251697.113244619220495 ], [ 2685688.698468554764986, 1251009.692250864813104 ], [ 2685704.5716408113949, 1250977.008285979740322 ], [ 2685778.209266442339867, 1250964.28619566000998 ], [ 2685930.012414772994816, 1250965.041219563456252 ], [ 2686605.5857217842713, 1250913.724409241694957 ], [ 2686632.452822776976973, 1250919.454705599928275 ], [ 2687056.672380740288645, 1251071.785571256186813 ], [ 2687636.11169798951596, 1250650.33952421694994 ], [ 2687659.739408524241298, 1250630.11807257658802 ], [ 2688002.896235067397356, 1250526.902715478092432 ], [ 2688013.007460956461728, 1250527.2753482516855 ], [ 2688131.656252863351256, 1250869.519678510958329 ], [ 2688131.562991105951369, 1250880.860218093497679 ], [ 2688112.682493738364428, 1251099.523030810756609 ], [ 2688587.999102632515132, 1251622.672943223500624 ], [ 2688611.403143896721303, 1251642.593558810884133 ], [ 2688674.298391602002084, 1251863.257938897237182 ], [ 2688662.581998464651406, 1251899.665927877882496 ], [ 2688577.886596128810197, 1251915.188952974043787 ], [ 2687997.801909076515585, 1252017.846899836556986 ], [ 2687810.619745064526796, 1252134.49228454194963 ], [ 2687672.090133456047624, 1252187.370208922540769 ], [ 2687605.30932826641947, 1252186.270607281941921 ], [ 2687123.364059385843575, 1252162.369288183515891 ], [ 2686914.115920811891556, 1252174.416778309969231 ], [ 2686364.830563249532133, 1252208.300359423970804 ], [ 2686299.936015937011689, 1252222.81034163502045 ], [ 2685726.7161123319529, 1252654.14953856379725 ], [ 2685699.547688016202301, 1252654.089821969391778 ], [ 2685551.26287248544395, 1251697.113244619220495 ] ] ] } },
{ "type": "Feature", "properties": { "group_index": 0, "value": 300.0, "center": [ 6.628916535792547, 46.517495134632725 ], "pharmacy_id": "13417975495", "name": "Sun Store" }, "geometry": { "type": "Polygon", "coordinates": [ [ [ 2536107.028757465071976, 1152870.854515271494165 ], [ 2535868.956502524204552, 1151990.019628869369626 ], [ 2536031.488115197047591, 1151620.531310861930251 ], [ 2536039.198938900139183, 1151616.66940621775575 ], [ 2536089.093576381448656, 1151602.798012813320383 ], [ 2536114.998529252130538, 1151599.298615704290569 ], [ 2536147.385381277650595, 1151599.065612331032753 ], [ 2536570.8734365333803, 1151479.963312274776399 ], [ 2536843.885372477117926, 1151012.502303158631548 ], [ 2536904.223644881509244, 1150961.841411465313286 ], [ 2537338.189199614338577, 1150892.266248223837465 ], [ 2537659.405131909064949, 1150948.847460884368047 ], [ 2538126.927380676846951, 1150790.155462711350992 ], [ 2538382.960716273635626, 1150696.031389746349305 ], [ 2538604.835784541908652, 1150608.826196365989745 ], [ 2539169.140169832389802, 1151004.527543077245355 ], [ 2539728.983007399365306, 1151567.415902633918449 ], [ 2539755.390668510459363, 1151966.032762641320005 ], [ 2539344.581011018250138, 1152218.299205500632524 ], [ 2539034.096760269254446, 1152507.595877086743712 ], [ 2538686.380411496851593, 1152935.363446705974638 ], [ 2538496.768545043189079, 1153070.151072589680552 ], [ 2538483.263888708781451, 1153070.178154654335231 ], [ 2537988.682256242260337, 1153222.453265706310049 ], [ 2537834.329004175495356, 1153499.642387929838151 ], [ 2537769.934448538348079, 1153564.343809241428971 ], [ 2537730.591617834288627, 1153580.871317630400881 ], [ 2537727.530962226446718, 1153581.681241269689053 ], [ 2537555.049304275773466, 1153470.854749980615452 ], [ 2536997.374422673135996, 1153578.95473862090148 ], [ 2536834.63316411152482, 1153658.817202950594947 ], [ 2536782.513063902966678, 1153656.586110287811607 ], [ 2536615.121901927050203, 1153353.405806492082775 ], [ 2536230.670673003885895, 1153002.947168524609879 ], [ 2536108.856123615056276, 1152876.727188459364697 ], [ 2536107.028757465071976, 1152870.854515271494165 ] ] ] } },
{ "type": "Feature", "properties": { "group_index": 0, "value": 300.0, "center": [ 8.2913705, 47.4876182 ], "pharmacy_id": "7492154190", "name": "TopPharm Damian Apotheke & Drogerie" }, "geometry": { "type": "Polygon", "coordinates": [ [ [ 2662273.146748209837824, 1261060.997783822240308 ], [ 2662379.089613179676235, 1260811.597322583431378 ], [ 2662773.589275376871228, 1260009.514441191684455 ], [ 2662787.596561236307025, 1259975.08228314248845 ], [ 2663007.719971026293933, 1259687.878022110555321 ], [ 2663143.848618624266237, 1259532.103624288458377 ], [ 2663164.438546502497047, 1259537.994243836496025 ], [ 2663225.027001839131117, 1259567.440293796127662 ], [ 2663246.547043054364622, 1259585.016335556516424 ], [ 2663457.038771103601903, 1259749.389049952151254 ], [ 2663922.182021845597774, 1259733.715347771067172 ], [ 2663947.715186668559909, 1259728.431692465441301 ], [ 2664014.210118426010013, 1259713.027991795679554 ], [ 2664055.474643550347537, 1259702.800205197650939 ], [ 2664672.587901367340237, 1259465.55836173822172 ], [ 2664899.909938801079988, 1259363.749314636457711 ], [ 2665190.322153645567596, 1259461.233898275764659 ], [ 2665608.211403404828161, 1259447.618301731534302 ], [ 2665619.077927511651069, 1259446.515711317770183 ], [ 2665872.333977522328496, 1259691.17487202421762 ], [ 2666191.82534960238263, 1260171.092327832244337 ], [ 2666183.184556521940976, 1260209.134872751543298 ], [ 2665889.283344414550811, 1260328.054717937717214 ], [ 2665781.612265673931688, 1260224.00264511234127 ], [ 2665163.973700949922204, 1260306.564830794231966 ], [ 2664988.955705403815955, 1260596.29831369058229 ], [ 2664975.01106272591278, 1260630.837321655359119 ], [ 2664574.033918405417353, 1260725.407527655130252 ], [ 2664312.594400150701404, 1261017.776158501161262 ], [ 2664241.846427323762327, 1261051.365866506705061 ], [ 2663966.561343587003648, 1261059.167668784037232 ], [ 2663776.107823756989092, 1260908.112301407381892 ], [ 2663164.6148418225348, 1260982.387015126645565 ], [ 2663152.575120057910681, 1260987.818079404067248 ], [ 2662986.632140889763832, 1261052.208130170125514 ], [ 2662454.927565959747881, 1261058.800500197336078 ], [ 2662283.914084327872843, 1261097.582350381650031 ], [ 2662273.146748209837824, 1261060.997783822240308 ] ] ] } },
{ "type": "Feature", "properties": { "group_index": 0, "value": 300.0, "center": [ 8.818562112525527, 47.30608007376772 ], "pharmacy_id": "7098198699", "name": "Puls Apotheke & Drogerie" }, "geometry": { "type": "Polygon", "coordinates": [ [ [ 2702574.053074392490089, 1241438.93151427176781 ], [ 2702565.6888083582744, 1241371.624016129644588 ], [ 2702706.064218573272228, 1241082.0502810170874 ], [ 2703320.472157008014619, 1240659.052557028131559 ], [ 2703334.3563725319691, 1240639.167771904263645 ], [ 2703476.646757643204182, 1240425.036665083141997 ], [ 2703854.608319705817848, 1240091.156561913900077 ], [ 2704047.709242070559412, 1239867.031267365673557 ], [ 2704081.138943607453257, 1239819.802996572339907 ], [ 2704338.99333541514352, 1239914.846379502676427 ], [ 2704522.914768638089299, 1238976.468869706615806 ], [ 2704512.344573630020022, 1238962.383098921738565 ], [ 2704500.740967790130526, 1238946.83359184442088 ], [ 2704485.006498318631202, 1238920.981275259517133 ], [ 2704471.918936090543866, 1238895.175605260534212 ], [ 2704442.905390243045986, 1238837.176194621482864 ], [ 2704434.834478808101267, 1238822.912171400152147 ], [ 2704455.792239800561219, 1238797.038646465865895 ], [ 2704790.757071678992361, 1239090.276985121890903 ], [ 2705111.005626288242638, 1239255.84255335945636 ], [ 2705225.563048364594579, 1239322.70089270430617 ], [ 2705890.69023533212021, 1239274.59846387989819 ], [ 2706080.080740795005113, 1239098.842588193481788 ], [ 2706104.751519059762359, 1239115.296104495413601 ], [ 2706518.429673125036061, 1239603.192234516842291 ], [ 2706524.254037966020405, 1239611.636619993019849 ], [ 2706534.650642806664109, 1239635.063582609407604 ], [ 2706559.545808682683855, 1239803.085435264976695 ], [ 2706559.366620343178511, 1239804.63898364151828 ], [ 2706511.885727439075708, 1240081.446910109138116 ], [ 2706292.111970496363938, 1240273.769104281440377 ], [ 2705943.92896182090044, 1240563.326519764959812 ], [ 2705785.758007977157831, 1240717.292450044071302 ], [ 2705391.631082157604396, 1241190.650591490557417 ], [ 2705140.316700505558401, 1241690.583031815709546 ], [ 2705128.142460866365582, 1241716.165098343975842 ], [ 2704915.698103284463286, 1242064.344000042183325 ], [ 2704808.864135023672134, 1242196.559496788308024 ], [ 2704767.758920101914555, 1242233.529233912471682 ], [ 2704660.556417592335492, 1242305.582864693365991 ], [ 2704016.014034403953701, 1242540.879232244333252 ], [ 2703528.839316671248525, 1242547.58830678043887 ], [ 2703355.408419364597648, 1242542.672779468121007 ], [ 2703346.231546116061509, 1242505.261730239726603 ], [ 2703364.245103150606155, 1242378.365910629974678 ], [ 2703339.010687970556319, 1241808.818687386345118 ], [ 2702818.523361202329397, 1241592.168118214933202 ], [ 2702793.810867252293974, 1241586.958309702808037 ], [ 2702735.35796185862273, 1241552.030506839975715 ], [ 2702722.639473552349955, 1241544.137640048516914 ], [ 2702591.909892487339675, 1241468.929893346037716 ], [ 2702574.053074392490089, 1241438.93151427176781 ] ] ] } },
{ "type": "Feature", "properties": { "group_index": 0, "value": 300.0, "center": [ 8.538538814309288, 47.374217766635795 ], "pharmacy_id": "693318441", "name": "Victoria Apotheke" }, "geometry": { "type": "Polygon", "coordinates": [ [ [ 2681627.78811922064051, 1248163.82795953983441 ], [ 2681580.694614567328244, 1247755.324565054150298 ], [ 2681636.333869343157858, 1247477.664473545504734 ], [ 2681757.712681614793837, 1246755.252224032301456 ], [ 2682026.209145644214004, 1246503.219411588972434 ], [ 2682618.279528952669352, 1246155.960202520946041 ], [ 2682732.612486140802503, 1246051.477288527414203 ], [ 2682760.803403079975396, 1246056.207320519722998 ], [ 2682977.459340805187821, 1246312.087978633586317 ], [ 2683489.934222927317023, 1246562.90754468482919 ], [ 2683855.531275101006031, 1246529.151157120009884 ], [ 2683917.704074617475271, 1246508.014898945577443 ], [ 2684210.885622575879097, 1246403.092809251742437 ], [ 2684472.474642650224268, 1246776.8655285614077 ], [ 2684564.507272707764059, 1246929.067034976324067 ], [ 2684614.893774671014398, 1247220.111695496132597 ], [ 2684245.343006897717714, 1247959.61954698828049 ], [ 2684240.668675723019987, 1247964.33441005134955 ], [ 2683979.779035900253803, 1247981.090866819489747 ], [ 2683664.264287103898823, 1248598.309750833548605 ], [ 2683540.970097566954792, 1249035.228355549974367 ], [ 2683506.759181689936668, 1249276.48089874535799 ], [ 2683299.415715587325394, 1249538.647487134439871 ], [ 2683042.815957619808614, 1249416.179084309143946 ], [ 2683040.491172985173762, 1249415.034562013810501 ], [ 2682679.521491661667824, 1249038.377576678292826 ], [ 2682215.835598870180547, 1248528.442483389982954 ], [ 2682106.441188717260957, 1248504.019823167938739 ], [ 2681945.510201458353549, 1248448.975327774416655 ], [ 2681756.554227505810559, 1248312.044132497860119 ], [ 2681637.219279343727976, 1248180.97038150834851 ], [ 2681627.78811922064051, 1248163.82795953983441 ] ] ] } },
{ "type": "Feature", "properties": { "group_index": 0, "value": 300.0, "center": [ 8.767353894893098, 47.25175553266155 ], "pharmacy_id": "1516368539", "name": "Mistel-Apotheke" }, "geometry": { "type": "Polygon", "coordinates": [ [ [ 2697871.039342870935798, 1235573.796291395789012 ], [ 2697953.788580598309636, 1235407.592041300842538 ], [ 2698052.096855232492089, 1235285.011357662733644 ], [ 2698125.205595056060702, 1235148.450170055264607 ], [ 2698128.286482165101916, 1234219.813124403124675 ], [ 2697960.480089485645294, 1234111.631568862358108 ], [ 2697612.723438079468906, 1234057.20305535197258 ], [ 2697598.332895202562213, 1234057.52251791767776 ], [ 2697561.266916760243475, 1234050.909083808772266 ], [ 2697513.862328070215881, 1234023.77778224600479 ], [ 2697510.882099690847099, 1234020.83782945945859 ], [ 2697364.242611179593951, 1233752.01353049161844 ], [ 2697371.43440378177911, 1233738.232306576799601 ], [ 2697430.328008041251451, 1233651.355649646604434 ], [ 2698001.331808802671731, 1233283.026857520453632 ], [ 2698457.237249312456697, 1232763.288597910664976 ], [ 2699096.395141590386629, 1232417.987269330769777 ], [ 2699516.059268546290696, 1232312.586199154378846 ], [ 2699847.887018990237266, 1232243.09859836474061 ], [ 2699849.020872069057077, 1232243.228848808677867 ], [ 2700106.20408302359283, 1232554.339812288526446 ], [ 2700242.103225748054683, 1232857.410178747726604 ], [ 2700745.067224596161395, 1233269.664108640747145 ], [ 2701301.373619701713324, 1232752.177455645287409 ], [ 2701332.57372564682737, 1232730.026045104023069 ], [ 2701650.133264732547104, 1232622.589769906131551 ], [ 2701778.042531916406006, 1232613.882906928891316 ], [ 2702178.325199579354376, 1232739.398848654469475 ], [ 2702190.138311305083334, 1232757.059553978731856 ], [ 2702202.468562808819115, 1232793.076231559971347 ], [ 2702255.701467304490507, 1233000.146572839235887 ], [ 2702772.171128596179187, 1233424.260499727213755 ], [ 2702907.755710548255593, 1233373.790659367805347 ], [ 2703036.615521951112896, 1233379.360522212926298 ], [ 2703069.65059989085421, 1233421.854092632420361 ], [ 2703105.82386965258047, 1233484.194995522033423 ], [ 2703037.398067024536431, 1233779.452703265007585 ], [ 2703035.764727167319506, 1234606.714333643671125 ], [ 2702883.393738683778793, 1234941.549294596072286 ], [ 2702743.125590399838984, 1235107.247473247582093 ], [ 2702452.096673504915088, 1235249.663374758791178 ], [ 2702299.739331610500813, 1235318.534805074101314 ], [ 2702289.592937612906098, 1235301.124780983664095 ], [ 2702272.535899062640965, 1235271.809075443539768 ], [ 2702055.415744175668806, 1234938.047022220212966 ], [ 2701585.585131327621639, 1235067.538450982421637 ], [ 2701581.628528414294124, 1235073.141690059332177 ], [ 2701467.03815553477034, 1235120.664055139524862 ], [ 2701351.526138927321881, 1236047.056106586940587 ], [ 2701236.310997867956758, 1236412.033421160653234 ], [ 2701176.933811789844185, 1236405.572598622879013 ], [ 2700703.789844857063144, 1236488.59612684766762 ], [ 2700681.714655313640833, 1236500.56431279075332 ], [ 2700197.270904865581542, 1236931.142188312485814 ], [ 2700157.894024335313588, 1237277.961354960221797 ], [ 2700149.503072875086218, 1237308.843131829518825 ], [ 2700112.958642896730453, 1237452.112779370974749 ], [ 2700051.208624510094523, 1237631.874440615298226 ], [ 2700021.028708931058645, 1237649.156960470601916 ], [ 2699850.463977299630642, 1237564.33449219353497 ], [ 2699550.471796774771065, 1237413.519100173609331 ], [ 2699271.067803793121129, 1237112.172496432904154 ], [ 2699191.344874352216721, 1236892.565041669877246 ], [ 2699195.502881383057684, 1236870.173249688465148 ], [ 2699237.276399833615869, 1236757.008371072355658 ], [ 2699296.077256995718926, 1236594.202304695500061 ], [ 2699297.817997170612216, 1236589.672452468192205 ], [ 2699173.051338458899409, 1235826.684717678464949 ], [ 2698694.395740786101669, 1235930.903422927018255 ], [ 2698591.9366524098441, 1236202.960737540386617 ], [ 2698465.427552665583789, 1236301.158173624426126 ], [ 2698453.842051988933235, 1236310.639910733094439 ], [ 2698271.039014292415231, 1236239.115661039017141 ], [ 2697892.323142439126968, 1235972.33183960034512 ], [ 2697871.039342870935798, 1235573.796291395789012 ] ] ] } },
{ "type": "Feature", "properties": { "group_index": 0, "value": 300.0, "center": [ 7.8400379944815235, 47.56705672717932 ], "pharmacy_id": "13432224569", "name": "Apotheke & Drogerie, Riburg" }, "geometry": { "type": "Polygon", "coordinates": [ [ [ 2628211.296286962460726, 1269633.869064748520032 ], [ 2628213.388879427220672, 1269589.513919098535553 ], [ 2627956.1073526609689, 1268673.749435227829963 ], [ 2628012.656478319317102, 1268491.55351995700039 ], [ 2628068.308626713231206, 1268308.798030697507784 ], [ 2628098.586320233531296, 1267574.753008139552549 ], [ 2627862.259822476655245, 1267125.539798929588869 ], [ 2627893.942116593942046, 1266727.851981699932367 ], [ 2628521.050941361114383, 1266654.009501231834292 ], [ 2629086.225824201013893, 1266349.654846506426111 ], [ 2629543.344109151512384, 1266121.757032058667392 ], [ 2629621.073189679998904, 1266129.706557850819081 ], [ 2630249.552184223197401, 1266114.0953553696163 ], [ 2630520.525014183018357, 1266109.593960203696042 ], [ 2631158.162349029909819, 1266300.161513909231871 ], [ 2631498.954866433981806, 1266344.663221242837608 ], [ 2632135.531261488329619, 1266346.08573478134349 ], [ 2632180.378578727599233, 1266377.573933228617534 ], [ 2632198.337892474140972, 1266397.463485609274358 ], [ 2632252.364056270569563, 1266567.878593297442421 ], [ 2632690.812347258906811, 1267122.233852339908481 ], [ 2632711.413082474377006, 1267521.18772204243578 ], [ 2632676.390394439920783, 1267525.441724332980812 ], [ 2632645.602832849603146, 1267526.050025810254738 ], [ 2632580.758963510859758, 1267519.465769515372813 ], [ 2632529.555629843845963, 1267509.732717077247798 ], [ 2632456.591782547533512, 1267487.760889135068282 ], [ 2632380.496684669051319, 1267460.213302147574723 ], [ 2631887.208496609237045, 1268071.304521677782759 ], [ 2631866.381105851382017, 1268598.347266103606671 ], [ 2631800.235034795012325, 1268751.990423979237676 ], [ 2631781.899910270702094, 1268761.120684632565826 ], [ 2631737.353185351472348, 1268774.780271741561592 ], [ 2631227.096663528587669, 1269412.189568486995995 ], [ 2630744.881522236391902, 1269713.102768032811582 ], [ 2630637.066543177701533, 1269959.498563791625202 ], [ 2630621.885215581394732, 1270014.459538771770895 ], [ 2630145.361528182867914, 1270188.693438735324889 ], [ 2629643.399412402883172, 1270580.773036542814225 ], [ 2629460.430142422672361, 1270689.604273431003094 ], [ 2629439.995068015530705, 1270699.398506495868787 ], [ 2629152.724499918520451, 1270817.839242884889245 ], [ 2628776.358445803169161, 1270249.587501106550917 ], [ 2628353.438334062229842, 1269803.447747814934701 ], [ 2628212.474378818646073, 1269686.579131472157314 ], [ 2628211.296286962460726, 1269633.869064748520032 ] ] ] } },
{ "type": "Feature", "properties": { "group_index": 0, "value": 300.0, "center": [ 6.6398277, 46.7795826 ], "pharmacy_id": "4881685428", "name": "Pharmacie du Lac" }, "geometry": { "type": "Polygon", "coordinates": [ [ [ 2537459.49469167785719, 1182888.803834334248677 ], [ 2537530.046837245114148, 1182355.542090827599168 ], [ 2537539.10533881559968, 1182279.737892426084727 ], [ 2537141.698434615507722, 1181499.791311991168186 ], [ 2536523.683112747967243, 1181202.369018196128309 ], [ 2536451.373804741539061, 1180672.058065157616511 ], [ 2536450.168763131368905, 1180659.285846575163305 ], [ 2536454.446824826300144, 1180573.080466740764678 ], [ 2536464.965930687263608, 1180405.651726743672043 ], [ 2536472.398905068635941, 1180379.113348956918344 ], [ 2536483.901854626834393, 1180368.985522857867181 ], [ 2536615.619669448584318, 1180379.039193344302475 ], [ 2537245.18310083122924, 1180466.453964798012748 ], [ 2537768.748535173945129, 1180102.559271859005094 ], [ 2538097.837215470150113, 1180051.784498221008107 ], [ 2538679.490891955327243, 1179883.479837458347902 ], [ 2538810.303478540387005, 1179707.375430839136243 ], [ 2538822.759176344145089, 1179692.795471219578758 ], [ 2539040.216329005546868, 1179457.111137432744727 ], [ 2539090.360156230162829, 1179407.350517980288714 ], [ 2539096.665328240953386, 1179403.839944880921394 ], [ 2539672.203606011811644, 1179241.476000600494444 ], [ 2539770.756280328147113, 1179370.333366353064775 ], [ 2540221.410807372070849, 1179927.349115878809243 ], [ 2540508.623674579430372, 1180317.816605230560526 ], [ 2541027.936792521737516, 1180803.281098347622901 ], [ 2541125.283047478180379, 1180970.304757736623287 ], [ 2541184.669669597409666, 1181184.284801689442247 ], [ 2541604.425249814521521, 1181959.273245616350323 ], [ 2541715.435388348530978, 1182019.668926226906478 ], [ 2541620.969151167199016, 1182394.466439053649083 ], [ 2541509.888565908186138, 1182334.073231116402894 ], [ 2541280.253286323044449, 1182207.140634254552424 ], [ 2541051.298716129269451, 1182080.543577930191532 ], [ 2540968.734708501491696, 1182032.441840932704508 ], [ 2540917.922351615037769, 1181998.368777066702023 ], [ 2540720.611200962681323, 1181853.128040051320568 ], [ 2540527.366272474173456, 1181710.743801614036784 ], [ 2539928.937180537730455, 1181914.169951140647754 ], [ 2539801.217134368605912, 1181917.900240164715797 ], [ 2539790.380093153566122, 1181918.565220934571698 ], [ 2539723.306350813712925, 1181923.576760696480051 ], [ 2539481.958853821270168, 1181912.451365716988221 ], [ 2539040.16153862606734, 1182523.836863347329199 ], [ 2538583.821225916035473, 1182855.24723210115917 ], [ 2538126.268368923570961, 1183249.074254102772102 ], [ 2538121.373428145423532, 1183248.235524142161012 ], [ 2537610.454289816785604, 1183058.101343848742545 ], [ 2537460.164747772272676, 1182894.466709161410108 ], [ 2537459.49469167785719, 1182888.803834334248677 ] ] ] } },
{ "type": "Feature", "properties": { "group_index": 0, "value": 300.0, "center": [ 9.534115249924875, 47.44430724061645 ], "pharmacy_id": "235119430", "name": "Frey AG" }, "geometry": { "type": "Polygon", "coordinates": [ [ [ 2755748.630904010497034, 1257476.026685734512284 ], [ 2755575.996207535266876, 1257006.235791052225977 ], [ 2755559.476546957157552, 1256957.307967273751274 ], [ 2755601.573296147864312, 1256699.37649618438445 ], [ 2755623.520384436007589, 1256610.86415936704725 ], [ 2755670.248823131900281, 1256607.19994336576201 ], [ 2755724.412633131723851, 1256619.191860384773463 ], [ 2755762.551031918264925, 1256626.535772253060713 ], [ 2755780.315675313584507, 1256633.899441099492833 ], [ 2755944.998862553853542, 1256686.843485245713964 ], [ 2756298.071249519009143, 1256563.473041944904253 ], [ 2756439.020771816838533, 1255619.131375223165378 ], [ 2756329.464912506751716, 1255478.207507805200294 ], [ 2756141.914375470019877, 1255361.14187928265892 ], [ 2756069.96600872091949, 1255299.071876500966027 ], [ 2756037.463045534677804, 1255275.19142234721221 ], [ 2756059.079106790944934, 1254953.549047974403948 ], [ 2756096.98003654461354, 1254924.518695230828598 ], [ 2756143.846982923801988, 1254910.4065937907435 ], [ 2756159.863651279825717, 1254909.828292981721461 ], [ 2756195.145505779888481, 1254940.011190705467016 ], [ 2756328.545769386459142, 1255064.544859529007226 ], [ 2756630.057466723024845, 1255276.168656193418428 ], [ 2757212.408841639291495, 1254898.662317766575143 ], [ 2757324.191211948171258, 1254887.396927019348368 ], [ 2757325.403939998708665, 1254887.206726384581998 ], [ 2757379.119055996183306, 1254882.517959065502509 ], [ 2757972.715650076512247, 1254904.231624441687018 ], [ 2758063.806248797569424, 1254879.303345107473433 ], [ 2758081.761244496330619, 1254873.999398718588054 ], [ 2758165.858339893165976, 1254890.483515975531191 ], [ 2758233.571246683597565, 1254918.431598464492708 ], [ 2758660.509092150721699, 1254999.157413688488305 ], [ 2759056.638917791191489, 1254608.27394817606546 ], [ 2759146.556131859309971, 1254450.528935119276866 ], [ 2759148.139498025644571, 1254447.79091789224185 ], [ 2759194.202466856688261, 1254405.096468376461416 ], [ 2759229.032571333926171, 1254387.125518663786352 ], [ 2759250.374358747154474, 1254376.688659331295639 ], [ 2759288.104798830579966, 1254360.353244992671534 ], [ 2759304.665847703814507, 1254356.461335696745664 ], [ 2759359.803668952081352, 1254355.276631838176399 ], [ 2759465.665763383265585, 1254401.839719158830121 ], [ 2759478.569040570408106, 1254424.43232501600869 ], [ 2759479.682533411309123, 1254455.938809658167884 ], [ 2759478.689480887725949, 1254938.069715195102617 ], [ 2759479.131298977416009, 1254960.88263865862973 ], [ 2759378.172258304897696, 1255349.116273504914716 ], [ 2759169.475552747026086, 1255635.573394488077611 ], [ 2759362.314973871223629, 1256511.988639217801392 ], [ 2759367.621928711421788, 1256519.472465615486726 ], [ 2759729.192848715465516, 1257149.417068628594279 ], [ 2759859.057910611387342, 1257246.688739924924448 ], [ 2759859.867992374580353, 1257264.173030007164925 ], [ 2759821.104090861510485, 1258235.014629350742325 ], [ 2759828.100391692947596, 1258392.03209071024321 ], [ 2759823.680765300057828, 1258399.253538094228134 ], [ 2759773.823424522764981, 1258452.073154020123184 ], [ 2759561.821903561241925, 1259386.65214178734459 ], [ 2759656.377048603259027, 1259597.0864234699402 ], [ 2759656.20994511898607, 1259611.652537372428924 ], [ 2759650.327677128836513, 1259656.317830608226359 ], [ 2759489.732931306120008, 1259774.665586523711681 ], [ 2759483.836162245366722, 1259772.393208930734545 ], [ 2759071.63144710008055, 1259549.73585119866766 ], [ 2758668.079836780205369, 1258893.89469106332399 ], [ 2758359.540238990448415, 1258703.658583804499358 ], [ 2757778.313285408075899, 1258667.989017943153158 ], [ 2757733.129770102910697, 1258662.334538393188268 ], [ 2757687.347804565913975, 1258653.661376040661708 ], [ 2757319.412732178810984, 1257961.053270340198651 ], [ 2757011.481158282142133, 1257491.62278728489764 ], [ 2756575.859933988191187, 1258146.861618764931336 ], [ 2756566.12606541113928, 1258155.501824170351028 ], [ 2756462.702067412436008, 1258166.88991088909097 ], [ 2755997.15663120476529, 1257919.018508418463171 ], [ 2755936.293546974193305, 1257884.04620644566603 ], [ 2755748.630904010497034, 1257476.026685734512284 ] ] ] } },
{ "type": "Feature", "properties": { "group_index": 0, "value": 300.0, "center": [ 6.6516763, 46.5274092 ], "pharmacy_id": "2464429548", "name": "Sun Store" }, "geometry": { "type": "Polygon", "coordinates": [ [ [ 2539006.3534692726098, 1154264.605403879890218 ], [ 2539035.707196030765772, 1153951.804978655651212 ], [ 2538669.789410961326212, 1153384.775972909294069 ], [ 2538412.560126162599772, 1152857.342346702935174 ], [ 2538364.338970062322915, 1152495.195934549672529 ], [ 2538362.997237254865468, 1152484.092565449420363 ], [ 2538412.984461442101747, 1152307.262334911385551 ], [ 2538654.660601722076535, 1151932.811264244141057 ], [ 2538792.091485457960516, 1151802.451312425546348 ], [ 2538794.151031013112515, 1151801.207452804548666 ], [ 2538944.19888393394649, 1151718.526162614813074 ], [ 2538968.899553481955081, 1151709.715082089183852 ], [ 2538995.155445879325271, 1151702.889397101476789 ], [ 2539205.812230855692178, 1151731.104384409962222 ], [ 2539220.270009534899145, 1151733.959763901308179 ], [ 2539492.480155408848077, 1151922.538259440567344 ], [ 2540174.050136291887611, 1151982.305608096299693 ], [ 2540224.85804438078776, 1151974.796223277924582 ], [ 2540227.240255220327526, 1151975.106040113139898 ], [ 2540724.265212571248412, 1152140.27414977340959 ], [ 2540930.491579704452306, 1152438.515789542347193 ], [ 2540943.737733653746545, 1152474.51610854268074 ], [ 2540949.04374707210809, 1152491.250757525907829 ], [ 2540966.785346805118024, 1152609.918055046349764 ], [ 2540972.804632237181067, 1152660.21931189391762 ], [ 2540963.570023674983531, 1152680.987818346126005 ], [ 2541071.388845612294972, 1153643.558356939116493 ], [ 2541344.580111399292946, 1153766.730135731166229 ], [ 2541370.335185860283673, 1153772.148429356282577 ], [ 2541407.89924465958029, 1153784.78891620808281 ], [ 2541438.960768384393305, 1153799.382925977930427 ], [ 2541468.990370116196573, 1153818.322810950223356 ], [ 2541514.371641866397113, 1153853.788982988800853 ], [ 2541620.084157266654074, 1153939.585087715648115 ], [ 2541712.640944188460708, 1154045.632575543597341 ], [ 2541640.942324977833778, 1154262.333584488602355 ], [ 2541575.609595585614443, 1154391.593325944151729 ], [ 2540942.742063594516367, 1154519.625658656936139 ], [ 2540891.534040806815028, 1154593.50218991166912 ], [ 2540604.232906258199364, 1154631.021658207755536 ], [ 2540020.747134627308697, 1154529.873181070899591 ], [ 2539702.960687474347651, 1154839.331406878307462 ], [ 2539127.15386974811554, 1154738.637264146702364 ], [ 2539123.042406298220158, 1154734.120909615419805 ], [ 2539006.3534692726098, 1154264.605403879890218 ] ] ] } },
{ "type": "Feature", "properties": { "group_index": 0, "value": 300.0, "center": [ 8.731196100329317, 47.53530238887831 ], "pharmacy_id": "1504082568", "name": "Apotheke Seuzach" }, "geometry": { "type": "Polygon", "coordinates": [ [ [ 2694588.359510010574013, 1265577.202141519170254 ], [ 2694621.285209398251027, 1265435.168234838172793 ], [ 2695062.610905973706394, 1265275.783676122315228 ], [ 2695562.093904575798661, 1264833.028021256439388 ], [ 2695687.791430582292378, 1264731.310789079405367 ], [ 2695964.328964781947434, 1264529.626979950116947 ], [ 2696234.044559932313859, 1263957.096755153266713 ], [ 2696312.898992044851184, 1263773.230003271019086 ], [ 2696324.625381067860872, 1263747.066251096082851 ], [ 2696348.161024522036314, 1263694.295360962161794 ], [ 2696448.83831129129976, 1263456.964533100835979 ], [ 2696462.260056460741907, 1263423.934206879930571 ], [ 2696579.688651781063527, 1263365.358293069992214 ], [ 2696601.694181706756353, 1263364.939556192606688 ], [ 2697007.823416936211288, 1263499.141292225802317 ], [ 2697240.957752743270248, 1263688.792034306097776 ], [ 2697366.629610342439264, 1263870.786896096775308 ], [ 2697367.104279452934861, 1263887.697487709345296 ], [ 2697306.072151158004999, 1264076.069905003532767 ], [ 2697645.142590431496501, 1264872.870899927336723 ], [ 2697896.698139200452715, 1264887.153355245944113 ], [ 2697937.666275741066784, 1264882.939421624410897 ], [ 2698201.614676164463162, 1264817.707756912335753 ], [ 2698231.809314674232155, 1264804.642952102003619 ], [ 2698265.177256045397371, 1264795.523185298079625 ], [ 2698307.7035759286955, 1264792.783361393492669 ], [ 2698339.12701060064137, 1264796.420005984837189 ], [ 2698646.947413854766637, 1264783.7591956644319 ], [ 2699280.442627497948706, 1264538.936718953540549 ], [ 2699548.775169714353979, 1264590.935627420898527 ], [ 2699546.68170417053625, 1264612.362604627618566 ], [ 2699533.948730169329792, 1264684.096668533980846 ], [ 2699501.881323554553092, 1264781.304304855875671 ], [ 2699507.824538176413625, 1265751.989378112368286 ], [ 2699507.747377997729927, 1265752.099282065872103 ], [ 2699355.509351315908134, 1265875.308126660296693 ], [ 2699355.434065481182188, 1265875.306860331445932 ], [ 2698948.150448506232351, 1265930.633150384994224 ], [ 2698487.708380493801087, 1266559.578830983489752 ], [ 2698692.706681124400347, 1267084.54707248089835 ], [ 2699025.870296043809503, 1267605.444356077350676 ], [ 2699059.72007186152041, 1267643.043126412667334 ], [ 2699112.042421384714544, 1267826.963459457270801 ], [ 2699195.955254748929292, 1268075.02401207992807 ], [ 2699195.543480519205332, 1268077.129980263765901 ], [ 2699057.491305715870112, 1268220.156671605538577 ], [ 2699038.220994263887405, 1268238.070956642972305 ], [ 2698942.954206112306565, 1268312.426470152800903 ], [ 2698569.099374006967992, 1268116.125241772970185 ], [ 2698462.265789600089192, 1267977.005512852454558 ], [ 2698061.268643043935299, 1267780.951988083310425 ], [ 2697687.155152310617268, 1268092.572186158504337 ], [ 2697647.051841132342815, 1268168.750858726911247 ], [ 2697564.150832720566541, 1268265.684870527125895 ], [ 2697520.770728055387735, 1268262.41054425900802 ], [ 2697516.862956219818443, 1268262.012391960481182 ], [ 2697509.651290258858353, 1268261.114863669266924 ], [ 2697408.0745560512878, 1267975.423320077126846 ], [ 2697085.888398151379079, 1267347.487689566100016 ], [ 2696858.27306468738243, 1267390.121981550240889 ], [ 2696807.87510878033936, 1267414.983612944604829 ], [ 2696738.0978271253407, 1267441.752251416211948 ], [ 2696710.934172919951379, 1267454.651762046152726 ], [ 2696187.443320801015943, 1267155.972536894725636 ], [ 2695886.618100775405765, 1267149.412582182325423 ], [ 2695702.039466240443289, 1267184.672495825914666 ], [ 2695582.506975431926548, 1267178.399768503848463 ], [ 2695576.419462663121521, 1267173.07470276276581 ], [ 2695397.311996615026146, 1266683.332389183109626 ], [ 2695208.585817020852119, 1266171.757209539879113 ], [ 2694723.422295155469328, 1265927.318297593621537 ], [ 2694719.953829615842551, 1265927.596286489628255 ], [ 2694654.153586736880243, 1265898.407348145963624 ], [ 2694567.843424170278013, 1265828.52434220793657 ], [ 2694588.359510010574013, 1265577.202141519170254 ] ] ] } },
{ "type": "Feature", "properties": { "group_index": 0, "value": 300.0, "center": [ 6.955403659756453, 47.00431886205097 ], "pharmacy_id": "1600494023", "name": "Amavita" }, "geometry": { "type": "Polygon", "coordinates": [ [ [ 2560593.470712633803487, 1205531.856959155062214 ], [ 2560546.890079345554113, 1205320.378741177497432 ], [ 2560863.304128990508616, 1204510.27698730211705 ], [ 2561418.520053890068084, 1204282.414993011625484 ], [ 2561425.354950908571482, 1204280.59191882610321 ], [ 2561869.996310586575419, 1204527.757225692970678 ], [ 2562339.707545017823577, 1204727.548003183677793 ], [ 2562682.642711789347231, 1204960.854244481073692 ], [ 2563063.739034892525524, 1205060.089906327193603 ], [ 2563328.340090572368354, 1205191.528707121498883 ], [ 2563355.486338263843209, 1205227.270639057504013 ], [ 2563798.448854952584952, 1205798.550053847022355 ], [ 2564310.431812129449099, 1206290.069860715419054 ], [ 2564589.060476830229163, 1206377.344230033224449 ], [ 2564872.918111937586218, 1206733.419187494320795 ], [ 2565300.165660063270479, 1206714.124690921744332 ], [ 2565350.47070290055126, 1206708.050457589328289 ], [ 2565451.69522363319993, 1206696.900262801907957 ], [ 2565462.944064632523805, 1206695.945559747517109 ], [ 2565731.312588752713054, 1206658.484527533641085 ], [ 2565869.204023474361748, 1206636.235305844573304 ], [ 2565897.899647991172969, 1206640.962395281996578 ], [ 2565973.460549631621689, 1206702.787067873636261 ], [ 2565988.876860331743956, 1206872.127800872316584 ], [ 2565944.048823244869709, 1207436.258212620392442 ], [ 2565891.749489534646273, 1207544.396605979185551 ], [ 2565890.086397243663669, 1207546.073752060998231 ], [ 2565639.354253540281206, 1207628.896185621619225 ], [ 2565321.246329159010202, 1207551.808658143272623 ], [ 2564676.741301523055881, 1207606.518574418732896 ], [ 2564121.308701549191028, 1207300.444951051613316 ], [ 2563538.534922758582979, 1207319.330088613554835 ], [ 2563501.736825712490827, 1207307.437737317522988 ], [ 2563099.236254221759737, 1206809.970278416061774 ], [ 2563139.445347453001887, 1206414.38597932131961 ], [ 2562599.686357723549008, 1205909.910878763766959 ], [ 2562437.320217833388597, 1205826.885932910488918 ], [ 2562386.64134189253673, 1205798.634297044947743 ], [ 2562212.684415800962597, 1205711.797621911391616 ], [ 2561700.022088208701462, 1205858.711650223238394 ], [ 2561674.310485811904073, 1205846.092147968010977 ], [ 2561638.568660067860037, 1205823.087032942799851 ], [ 2561591.590239697135985, 1205779.587425836594775 ], [ 2560933.389650500845164, 1205881.3712551840581 ], [ 2560898.743913598824292, 1205898.274904247839004 ], [ 2560850.496293858159333, 1205905.373707682592794 ], [ 2560837.406070269178599, 1205904.014564187731594 ], [ 2560593.470712633803487, 1205531.856959155062214 ] ] ] } },
{ "type": "Feature", "properties": { "group_index": 0, "value": 300.0, "center": [ 8.272721537013734, 47.34967029375198 ], "pharmacy_id": "1752151144", "name": "Dropa Hirsch Apotheke" }, "geometry": { "type": "Polygon", "coordinates": [ [ [ 2661281.132033961359411, 1244231.308784602442756 ], [ 2661231.33442437229678, 1244143.179128287360072 ], [ 2661241.39216997474432, 1244105.924136695219204 ], [ 2661551.528644122183323, 1244121.364972888026386 ], [ 2661943.668738169129938, 1244005.587611121591181 ], [ 2662078.429129090625793, 1243939.283538580406457 ], [ 2662454.694289655424654, 1243847.612497159745544 ], [ 2662735.759572578594089, 1243868.924467568984255 ], [ 2663286.051312737166882, 1244078.576733333524317 ], [ 2663312.397764762863517, 1244088.308836550451815 ], [ 2663486.69628437794745, 1244198.579697132110596 ], [ 2664000.879178722854704, 1244212.778506426373497 ], [ 2664016.625906731002033, 1244245.192843521013856 ], [ 2664098.629817488603294, 1244475.013847208349034 ], [ 2664103.873734138906002, 1244514.208583043655381 ], [ 2663693.020759148523211, 1245259.520635498687625 ], [ 2663396.469264884945005, 1245866.208161847898737 ], [ 2663372.17325700679794, 1245884.516826157225296 ], [ 2662932.808408656157553, 1245661.019650761503726 ], [ 2662424.234544776845723, 1245499.09165053232573 ], [ 2662404.575962900184095, 1245471.754955117357895 ], [ 2661954.027053727768362, 1244808.133917606202886 ], [ 2661646.552201282698661, 1244852.740399931790307 ], [ 2661281.132033961359411, 1244231.308784602442756 ] ] ] } },
{ "type": "Feature", "properties": { "group_index": 0, "value": 300.0, "center": [ 7.9921594307103865, 47.12090329281064 ], "pharmacy_id": "5173415122", "name": "Drogerie A. Jost" }, "geometry": { "type": "Polygon", "coordinates": [ [ [ 2639156.09904301725328, 1219198.281795711256564 ], [ 2639360.858852657489479, 1219079.781669540563598 ], [ 2639364.974869764875621, 1219077.029427332337946 ], [ 2639768.737252080347389, 1218955.969711668323725 ], [ 2640011.747920009307563, 1218534.901163884205744 ], [ 2639881.808997783344239, 1217628.828688019420952 ], [ 2640027.096570135559887, 1217288.712267335038632 ], [ 2640109.106202010530978, 1217363.529439987847582 ], [ 2640143.621945110149682, 1217400.672409174731001 ], [ 2640406.603251145221293, 1217563.099377786042169 ], [ 2640991.60939743090421, 1217054.901694753672928 ], [ 2641087.443352771457285, 1216906.918085712008178 ], [ 2641345.198195930104703, 1216235.191698149312288 ], [ 2641259.531506138853729, 1215920.746911937370896 ], [ 2641335.034062793944031, 1215762.843283041846007 ], [ 2641463.885612160433084, 1215664.457222472177818 ], [ 2641482.826943100895733, 1215670.370132612530142 ], [ 2641606.721691993996501, 1215717.149178933352232 ], [ 2642215.229890111833811, 1215683.403598737437278 ], [ 2642463.335241212509573, 1215570.764484912389889 ], [ 2643027.34493780368939, 1215940.134166273986921 ], [ 2643577.628528064116836, 1216432.864091465249658 ], [ 2643704.720476826187223, 1216619.126398051157594 ], [ 2643793.53361099679023, 1216992.665935073979199 ], [ 2643759.416539989411831, 1217389.984800219070166 ], [ 2643687.864294399973005, 1218162.697714474517852 ], [ 2643760.174538532737643, 1218548.013111260486767 ], [ 2643699.724424658808857, 1218584.369291899958625 ], [ 2643362.547660891897976, 1218905.544010457582772 ], [ 2643427.51077468181029, 1219759.08248757943511 ], [ 2643564.318055142648518, 1220091.279543152311817 ], [ 2643546.060376088134944, 1220118.60698663117364 ], [ 2643524.17055015778169, 1220134.234288291539997 ], [ 2643323.603712773416191, 1220295.425625598058105 ], [ 2643075.872594218701124, 1221094.55455808644183 ], [ 2643076.07240695040673, 1221140.361309584695846 ], [ 2643073.188650929834694, 1221182.476897616637871 ], [ 2643059.228766788728535, 1221340.137506460072473 ], [ 2642942.550123811233789, 1221351.969576389528811 ], [ 2642931.702251992188394, 1221352.002567622577772 ], [ 2642787.301667131949216, 1221305.269542726455256 ], [ 2642253.319130439776927, 1221083.105012116488069 ], [ 2642096.58901270898059, 1221255.099358353763819 ], [ 2641835.699693293310702, 1221375.557199208065867 ], [ 2641490.131917330436409, 1221381.145327172940597 ], [ 2641419.897333553992212, 1221238.015545825473964 ], [ 2641412.085177525877953, 1221183.261793941492215 ], [ 2641412.107461083680391, 1221169.142377812182531 ], [ 2641420.831414026208222, 1220994.542851333739236 ], [ 2641462.687354770954698, 1220005.242405124008656 ], [ 2641419.831648397259414, 1219981.485924502834678 ], [ 2641371.02088809851557, 1219941.122971835779026 ], [ 2640913.025823420844972, 1219323.928691168548539 ], [ 2640775.975402784068137, 1219269.290843629045412 ], [ 2640661.550812215544283, 1219179.122625407529995 ], [ 2640301.405355032533407, 1219099.964247288648039 ], [ 2639893.258392469026148, 1219581.061208305414766 ], [ 2639855.440235533285886, 1219630.949084275169298 ], [ 2639451.020960473455489, 1219617.140583687229082 ], [ 2639236.919282713904977, 1219612.725417990470305 ], [ 2639180.048955449834466, 1219606.792431953828782 ], [ 2639119.346058236900717, 1219595.16480263415724 ], [ 2639156.09904301725328, 1219198.281795711256564 ] ] ] } },
{ "type": "Feature", "properties": { "group_index": 0, "value": 300.0, "center": [ 8.5082246, 47.3705488 ], "pharmacy_id": "2107009158", "name": "Drogama Apotheke Drogerie" }, "geometry": { "type": "Polygon", "coordinates": [ [ [ 2678881.871295962948352, 1247820.304707478964701 ], [ 2678814.931175271980464, 1247441.361563132377341 ], [ 2678813.969736712984741, 1247422.779738616663963 ], [ 2678817.482239287346601, 1247016.642862308304757 ], [ 2678834.185781344305724, 1246817.164726603077725 ], [ 2678836.817346693016589, 1246812.418486748589203 ], [ 2678875.368771543260664, 1246748.106642386876047 ], [ 2678897.488510723691434, 1246737.837830321164802 ], [ 2678907.110405492596328, 1246735.742082177195698 ], [ 2679075.458084230776876, 1246715.969670989783481 ], [ 2679305.787328168749809, 1246654.11100060492754 ], [ 2679822.837092428468168, 1246080.185754470061511 ], [ 2680360.076829837635159, 1245724.292156680952758 ], [ 2680877.854609160218388, 1245409.544549560407177 ], [ 2680960.914324979297817, 1245402.672453877748922 ], [ 2680963.316643823869526, 1245403.817178952274844 ], [ 2681032.676745192147791, 1245437.344013969879597 ], [ 2681113.725870714522898, 1245605.0177714494057 ], [ 2681410.837308142799884, 1246280.57925261487253 ], [ 2681743.169333322905004, 1246341.74979580566287 ], [ 2681748.276577926240861, 1246343.932882842142135 ], [ 2681866.080223267897964, 1246402.489195089787245 ], [ 2682181.638695497065783, 1246986.057532441569492 ], [ 2682370.533204823266715, 1247417.883521161507815 ], [ 2682380.907583829015493, 1247617.062794585013762 ], [ 2682355.612285275477916, 1247741.469554940704256 ], [ 2682205.161492593586445, 1247974.998223068891093 ], [ 2682145.163213043939322, 1248042.43862368655391 ], [ 2681779.831584515981376, 1248420.333638177020475 ], [ 2681766.49641513871029, 1248428.933844585204497 ], [ 2681529.876653448212892, 1248352.619665823411196 ], [ 2680966.689951816573739, 1248386.372273686807603 ], [ 2680446.011947016231716, 1248538.285880704876035 ], [ 2679908.2074317894876, 1249060.618812179192901 ], [ 2679896.333444940391928, 1249067.575007469626144 ], [ 2679572.545099956914783, 1249055.211709067458287 ], [ 2679563.170260860119015, 1249050.415723070502281 ], [ 2679215.310577392112464, 1248816.364694703370333 ], [ 2679095.034936185926199, 1248729.806960234185681 ], [ 2678881.871295962948352, 1247820.304707478964701 ] ] ] } }
]
}
